[{"OBJECT_NAME":"NORSAT 3","OBJECT_ID":"2021-034E","EPOCH":"2026-03-09T22:23:32.431200","MEAN_MOTION":15.04338407,"ECCENTRICITY":0.0005858,"INCLINATION":97.5427,"RA_OF_ASC_NODE":128.5959,"ARG_OF_PERICENTER":280.8366,"MEAN_ANOMALY":79.2201,"EPHEMERIS_TYPE":0,"CLASSIFICATION_TYPE":"U","NORAD_CAT_ID":48272,"ELEMENT_SET_NO":999,"REV_AT_EPOCH":26491,"BSTAR":0.00030361478,"MEAN_MOTION_DOT":4.174e-5,"MEAN_MOTION_DDOT":0},{"OBJECT_NAME":"STARLINK-3051","OBJECT_ID":"2021-082AD","EPOCH":"2026-03-09T22:33:35.704512","MEAN_MOTION":15.04613444,"ECCENTRICITY":0.00063206,"INCLINATION":69.9976,"RA_OF_ASC_NODE":271.1374,"ARG_OF_PERICENTER":260.859,"MEAN_ANOMALY":99.1858,"EPHEMERIS_TYPE":0,"CLASSIFICATION_TYPE":"U","NORAD_CAT_ID":49157,"ELEMENT_SET_NO":999,"REV_AT_EPOCH":24767,"BSTAR":0.00022798634,"MEAN_MOTION_DOT":3.112e-5,"MEAN_MOTION_DDOT":0}]
